KUIPER-00096            
1 65135U 25171D   26195.76857593  .00001730  00000+0  25590-3 0  9993
2 65135  51.9017 316.1307 0000357 124.4809 235.6187 14.79936559 51713
KUIPER-00097            
1 65136U 25171E   26195.56331183  .00001715  00000+0  25393-3 0  9998
2 65136  51.9032 319.6944 0000416 104.2649 255.8359 14.79932091 51633
KUIPER-00098            
1 65137U 25171F   26195.56059625  .00001673  00000+0  24831-3 0  9996
2 65137  51.9029 322.0717 0000405 103.9036 256.1972 14.79937928 50953
KUIPER-00099            
1 65138U 25171G   26195.53761800  .00001683  00000+0  24969-3 0  9992
2 65138  51.9042 312.1780 0000532 121.7529 238.3485 14.79937396 51743
KUIPER-00100            
1 65139U 25171H   26195.84418994  .00001661  00000+0  24677-3 0  9992
2 65139  51.9028 308.2922 0000418 107.6839 252.4169 14.79939176 51825
KUIPER-00102            
1 65140U 25171J   26195.57136807  .00001050  00000+0  16675-3 0  9995
2 65140  51.8994 311.9865 0000272  73.4559 286.6433 14.79935169 51744
KUIPER-00103            
1 65141U 25171K   26195.58626558  .00001566  00000+0  23429-3 0  9991
2 65141  51.9008 329.4179 0000437 117.4831 242.6176 14.79937824 51509
KUIPER-00104            
1 65142U 25171L   26195.53222593  .00000165  00000+0  50681-4 0  9993
2 65142  51.9027 317.1582 0000393 106.0028 254.0977 14.79932866 51671
KUIPER-00105            
1 65143U 25171M   26195.55791490  .00000074  00000+0  38766-4 0  9992
2 65143  51.9021 324.6455 0000485 110.2340 249.8674 14.79933114 51576
KUIPER-00106            
1 65144U 25171N   26195.60616012  .00001718  00000+0  25428-3 0  9991
2 65144  51.9022 303.1942 0000382 107.2318 252.8686 14.79928167 51881
KUIPER-00107            
1 65145U 25171P   26195.57678392  .00000746  00000+0  12686-3 0  9999
2 65145  51.9014 307.0041 0000428 110.2772 249.8237 14.79933599 51822
KUIPER-00108            
1 65146U 25171Q   26195.66459796  .00001807  00000+0  26601-3 0  9996
2 65146  51.9037 319.1516 0000495 114.1313 245.9701 14.79930368 51663
KUIPER-00109            
1 65147U 25171R   26195.63621921  .00000162  00000+0  50289-4 0  9998
2 65147  51.9046 314.2196 0000531 133.7742 226.3264 14.79934498 51720
KUIPER-00110            
1 65148U 25171S   26195.65650689  .00001672  00000+0  24821-3 0  9993
2 65148  51.9008 326.6880 0000475  93.6457 266.4559 14.79936954 51541
KUIPER-00111            
1 65149U 25171T   26195.68486407  .00000345  00000+0  74258-4 0  9998
2 65149  51.8989 331.4406 0000360  99.8224 260.2779 14.79933101 51480
KUIPER-00112            
1 65150U 25171U   26195.53493555  .00000334  00000+0  72788-4 0  9990
2 65150  51.9034 314.7179 0000432  66.8142 293.2866 14.79933148 51707
