{"fetched_at":"2026-07-15T06:35:30.786Z","source":"https://celestrak.org/NORAD/elements/gp.php?GROUP=kuiper&FORMAT=JSON","constellation":"kuiper","records":[{"OBJECT_NAME":"KUIPER-00096","OBJECT_ID":"2025-171D","EPOCH":"2026-07-14T18:26:44.960352","CLASSIFICATION_TYPE":"U","MEAN_MOTION":14.79936559,"ECCENTRICITY":0.00003572,"INCLINATION":51.9017,"RA_OF_ASC_NODE":316.1307,"ARG_OF_PERICENTER":124.4809,"MEAN_ANOMALY":235.6187,"EPHEMERIS_TYPE":0,"NORAD_CAT_ID":65135,"ELEMENT_SET_NO":999,"REV_AT_EPOCH":5171,"BSTAR":0.00025590215,"MEAN_MOTION_DOT":0.0000173,"MEAN_MOTION_DDOT":0},{"OBJECT_NAME":"KUIPER-00097","OBJECT_ID":"2025-171E","EPOCH":"2026-07-14T13:31:10.142112","CLASSIFICATION_TYPE":"U","MEAN_MOTION":14.79932091,"ECCENTRICITY":0.0000416,"INCLINATION":51.9032,"RA_OF_ASC_NODE":319.6944,"ARG_OF_PERICENTER":104.2649,"MEAN_ANOMALY":255.8359,"EPHEMERIS_TYPE":0,"NORAD_CAT_ID":65136,"ELEMENT_SET_NO":999,"REV_AT_EPOCH":5163,"BSTAR":0.00025393,"MEAN_MOTION_DOT":0.00001715,"MEAN_MOTION_DDOT":0},{"OBJECT_NAME":"KUIPER-00098","OBJECT_ID":"2025-171F","EPOCH":"2026-07-14T13:27:15.516000","CLASSIFICATION_TYPE":"U","MEAN_MOTION":14.79937928,"ECCENTRICITY":0.0000405,"INCLINATION":51.9029,"RA_OF_ASC_NODE":322.0717,"ARG_OF_PERICENTER":103.9036,"MEAN_ANOMALY":256.1972,"EPHEMERIS_TYPE":0,"NORAD_CAT_ID":65137,"ELEMENT_SET_NO":999,"REV_AT_EPOCH":5095,"BSTAR":0.00024831,"MEAN_MOTION_DOT":0.00001673,"MEAN_MOTION_DDOT":0},{"OBJECT_NAME":"KUIPER-00099","OBJECT_ID":"2025-171G","EPOCH":"2026-07-14T12:54:10.195200","CLASSIFICATION_TYPE":"U","MEAN_MOTION":14.79937396,"ECCENTRICITY":0.0000532,"INCLINATION":51.9042,"RA_OF_ASC_NODE":312.178,"ARG_OF_PERICENTER":121.7529,"MEAN_ANOMALY":238.3485,"EPHEMERIS_TYPE":0,"NORAD_CAT_ID":65138,"ELEMENT_SET_NO":999,"REV_AT_EPOCH":5174,"BSTAR":0.00024969,"MEAN_MOTION_DOT":0.00001683,"MEAN_MOTION_DDOT":0},{"OBJECT_NAME":"KUIPER-00100","OBJECT_ID":"2025-171H","EPOCH":"2026-07-14T20:15:38.010816","CLASSIFICATION_TYPE":"U","MEAN_MOTION":14.79939176,"ECCENTRICITY":0.0000418,"INCLINATION":51.9028,"RA_OF_ASC_NODE":308.2922,"ARG_OF_PERICENTER":107.6839,"MEAN_ANOMALY":252.4169,"EPHEMERIS_TYPE":0,"NORAD_CAT_ID":65139,"ELEMENT_SET_NO":999,"REV_AT_EPOCH":5182,"BSTAR":0.00024677343,"MEAN_MOTION_DOT":0.00001661,"MEAN_MOTION_DDOT":0},{"OBJECT_NAME":"KUIPER-00102","OBJECT_ID":"2025-171J","EPOCH":"2026-07-14T13:42:46.201248","CLASSIFICATION_TYPE":"U","MEAN_MOTION":14.79935169,"ECCENTRICITY":0.0000272,"INCLINATION":51.8994,"RA_OF_ASC_NODE":311.9865,"ARG_OF_PERICENTER":73.4559,"MEAN_ANOMALY":286.6433,"EPHEMERIS_TYPE":0,"NORAD_CAT_ID":65140,"ELEMENT_SET_NO":999,"REV_AT_EPOCH":5174,"BSTAR":0.00016675,"MEAN_MOTION_DOT":0.0000105,"MEAN_MOTION_DDOT":0},{"OBJECT_NAME":"KUIPER-00103","OBJECT_ID":"2025-171K","EPOCH":"2026-07-14T14:04:13.346112","CLASSIFICATION_TYPE":"U","MEAN_MOTION":14.79937824,"ECCENTRICITY":0.0000437,"INCLINATION":51.9008,"RA_OF_ASC_NODE":329.4179,"ARG_OF_PERICENTER":117.4831,"MEAN_ANOMALY":242.6176,"EPHEMERIS_TYPE":0,"NORAD_CAT_ID":65141,"ELEMENT_SET_NO":999,"REV_AT_EPOCH":5150,"BSTAR":0.00023429,"MEAN_MOTION_DOT":0.00001566,"MEAN_MOTION_DDOT":0},{"OBJECT_NAME":"KUIPER-00104","OBJECT_ID":"2025-171L","EPOCH":"2026-07-14T12:46:24.320352","CLASSIFICATION_TYPE":"U","MEAN_MOTION":14.79932866,"ECCENTRICITY":0.00003934,"INCLINATION":51.9027,"RA_OF_ASC_NODE":317.1582,"ARG_OF_PERICENTER":106.0028,"MEAN_ANOMALY":254.0977,"EPHEMERIS_TYPE":0,"NORAD_CAT_ID":65142,"ELEMENT_SET_NO":999,"REV_AT_EPOCH":5167,"BSTAR":0.000050680709,"MEAN_MOTION_DOT":0.00000165,"MEAN_MOTION_DDOT":0},{"OBJECT_NAME":"KUIPER-00105","OBJECT_ID":"2025-171M","EPOCH":"2026-07-14T13:23:23.847360","CLASSIFICATION_TYPE":"U","MEAN_MOTION":14.79933114,"ECCENTRICITY":0.0000485,"INCLINATION":51.9021,"RA_OF_ASC_NODE":324.6455,"ARG_OF_PERICENTER":110.234,"MEAN_ANOMALY":249.8674,"EPHEMERIS_TYPE":0,"NORAD_CAT_ID":65143,"ELEMENT_SET_NO":999,"REV_AT_EPOCH":5157,"BSTAR":0.000038766,"MEAN_MOTION_DOT":7.4e-7,"MEAN_MOTION_DDOT":0},{"OBJECT_NAME":"KUIPER-00106","OBJECT_ID":"2025-171N","EPOCH":"2026-07-14T14:32:52.234368","CLASSIFICATION_TYPE":"U","MEAN_MOTION":14.79928167,"ECCENTRICITY":0.0000382,"INCLINATION":51.9022,"RA_OF_ASC_NODE":303.1942,"ARG_OF_PERICENTER":107.2318,"MEAN_ANOMALY":252.8686,"EPHEMERIS_TYPE":0,"NORAD_CAT_ID":65144,"ELEMENT_SET_NO":999,"REV_AT_EPOCH":5188,"BSTAR":0.00025428,"MEAN_MOTION_DOT":0.00001718,"MEAN_MOTION_DDOT":0},{"OBJECT_NAME":"KUIPER-00107","OBJECT_ID":"2025-171P","EPOCH":"2026-07-14T13:50:34.130688","CLASSIFICATION_TYPE":"U","MEAN_MOTION":14.79933599,"ECCENTRICITY":0.0000428,"INCLINATION":51.9014,"RA_OF_ASC_NODE":307.0041,"ARG_OF_PERICENTER":110.2772,"MEAN_ANOMALY":249.8237,"EPHEMERIS_TYPE":0,"NORAD_CAT_ID":65145,"ELEMENT_SET_NO":999,"REV_AT_EPOCH":5182,"BSTAR":0.00012686,"MEAN_MOTION_DOT":0.00000746,"MEAN_MOTION_DDOT":0},{"OBJECT_NAME":"KUIPER-00108","OBJECT_ID":"2025-171Q","EPOCH":"2026-07-14T15:57:01.263744","CLASSIFICATION_TYPE":"U","MEAN_MOTION":14.79930368,"ECCENTRICITY":0.0000495,"INCLINATION":51.9037,"RA_OF_ASC_NODE":319.1516,"ARG_OF_PERICENTER":114.1313,"MEAN_ANOMALY":245.9701,"EPHEMERIS_TYPE":0,"NORAD_CAT_ID":65146,"ELEMENT_SET_NO":999,"REV_AT_EPOCH":5166,"BSTAR":0.00026600823,"MEAN_MOTION_DOT":0.00001807,"MEAN_MOTION_DDOT":0},{"OBJECT_NAME":"KUIPER-00109","OBJECT_ID":"2025-171R","EPOCH":"2026-07-14T15:16:09.339744","CLASSIFICATION_TYPE":"U","MEAN_MOTION":14.79934498,"ECCENTRICITY":0.00005319,"INCLINATION":51.9046,"RA_OF_ASC_NODE":314.2196,"ARG_OF_PERICENTER":133.7742,"MEAN_ANOMALY":226.3264,"EPHEMERIS_TYPE":0,"NORAD_CAT_ID":65147,"ELEMENT_SET_NO":999,"REV_AT_EPOCH":5172,"BSTAR":0.000050288909,"MEAN_MOTION_DOT":0.00000162,"MEAN_MOTION_DDOT":0},{"OBJECT_NAME":"KUIPER-00110","OBJECT_ID":"2025-171S","EPOCH":"2026-07-14T15:45:22.195296","CLASSIFICATION_TYPE":"U","MEAN_MOTION":14.79936954,"ECCENTRICITY":0.00004754,"INCLINATION":51.9008,"RA_OF_ASC_NODE":326.688,"ARG_OF_PERICENTER":93.6457,"MEAN_ANOMALY":266.4559,"EPHEMERIS_TYPE":0,"NORAD_CAT_ID":65148,"ELEMENT_SET_NO":999,"REV_AT_EPOCH":5154,"BSTAR":0.00024821242,"MEAN_MOTION_DOT":0.00001672,"MEAN_MOTION_DDOT":0},{"OBJECT_NAME":"KUIPER-00111","OBJECT_ID":"2025-171T","EPOCH":"2026-07-14T16:26:12.255648","CLASSIFICATION_TYPE":"U","MEAN_MOTION":14.79933101,"ECCENTRICITY":0.00003609,"INCLINATION":51.8989,"RA_OF_ASC_NODE":331.4406,"ARG_OF_PERICENTER":99.8224,"MEAN_ANOMALY":260.2779,"EPHEMERIS_TYPE":0,"NORAD_CAT_ID":65149,"ELEMENT_SET_NO":999,"REV_AT_EPOCH":5148,"BSTAR":0.000074258191,"MEAN_MOTION_DOT":0.00000345,"MEAN_MOTION_DDOT":0},{"OBJECT_NAME":"KUIPER-00112","OBJECT_ID":"2025-171U","EPOCH":"2026-07-14T12:50:18.431520","CLASSIFICATION_TYPE":"U","MEAN_MOTION":14.79933148,"ECCENTRICITY":0.00004325,"INCLINATION":51.9034,"RA_OF_ASC_NODE":314.7179,"ARG_OF_PERICENTER":66.8142,"MEAN_ANOMALY":293.2866,"EPHEMERIS_TYPE":0,"NORAD_CAT_ID":65150,"ELEMENT_SET_NO":999,"REV_AT_EPOCH":5170,"BSTAR":0.000072787625,"MEAN_MOTION_DOT":0.00000334,"MEAN_MOTION_DDOT":0}]}
